{"type": "FeatureCollection", "features": [ {"type": "Feature", "properties": {"norad_id": 66879, "name": "STARLINK-35749", "group": "last-30-days", "lat": 25.60892678445742, "lon": 165.97441882680235, "alt_km": 390.5425448334963, "timestamp": "2025-12-26T03:50:10.808526+00:00", "meta": {"OBJECT_NAME": "STARLINK-35749", "OBJECT_ID": "2025-283B", "EPOCH": "2025-12-25T20:00:01.999008", "MEAN_MOTION": 15.5926667, "ECCENTRICITY": 0.0001218, "INCLINATION": 53.1598, "RA_OF_ASC_NODE": 8.6183, "ARG_OF_PERICENTER": 76.3219, "MEAN_ANOMALY": 37.9619, "EPHEMERIS_TYPE": 0, "CLASSIFICATION_TYPE": "U", "NORAD_CAT_ID": 66879, "ELEMENT_SET_NO": 999, "REV_AT_EPOCH": 453, "BSTAR": -0.027754, "MEAN_MOTION_DOT": -0.01956185, "MEAN_MOTION_DDOT": 0}, "tle": {"line1": "1 66879U 25283B   25359.83335647 -.01956185  00000+0 -27754-1 0  9991", "line2": "2 66879  53.1598   8.6183 0001218  76.3219  37.9619 15.59266670  4539"}}, "geometry": {"type": "Point", "coordinates": [165.97441882680235, 25.60892678445742]}}, {"type": "Feature", "properties": {"norad_id": 66880, "name": "STARLINK-35844", "group": "last-30-days", "lat": 27.03454497763448, "lon": 164.54640113416687, "alt_km": 390.2300961910396, "timestamp": "2025-12-26T03:50:10.808536+00:00", "meta": {"OBJECT_NAME": "STARLINK-35844", "OBJECT_ID": "2025-283C", "EPOCH": "2025-12-25T20:00:01.999008", "MEAN_MOTION": 15.59264489, "ECCENTRICITY": 0.0001315, "INCLINATION": 53.1599, "RA_OF_ASC_NODE": 8.623, "ARG_OF_PERICENTER": 78.8037, "MEAN_ANOMALY": 33.5641, "EPHEMERIS_TYPE": 0, "CLASSIFICATION_TYPE": "U", "NORAD_CAT_ID": 66880, "ELEMENT_SET_NO": 999, "REV_AT_EPOCH": 453, "BSTAR": -0.027714, "MEAN_MOTION_DOT": -0.019536, "MEAN_MOTION_DDOT": 0}, "tle": {"line1": "1 66880U 25283C   25359.83335647 -.01953600  00000+0 -27714-1 0  9998", "line2": "2 66880  53.1599   8.6230 0001315  78.8037  33.5641 15.59264489  4531"}}, "geometry": {"type": "Point", "coordinates": [164.54640113416687, 27.03454497763448]}}, {"type": "Feature", "properties": {"norad_id": 66881, "name": "STARLINK-35860", "group": "last-30-days", "lat": 24.169274948041203, "lon": 167.36935464727435, "alt_km": 390.7779911944326, "timestamp": "2025-12-26T03:50:10.808546+00:00", "meta": {"OBJECT_NAME": "STARLINK-35860", "OBJECT_ID": "2025-283D", "EPOCH": "2025-12-25T20:00:01.999008", "MEAN_MOTION": 15.592651, "ECCENTRICITY": 0.0001291, "INCLINATION": 53.1599, "RA_OF_ASC_NODE": 8.6139, "ARG_OF_PERICENTER": 77.0502, "MEAN_ANOMALY": 39.1511, "EPHEMERIS_TYPE": 0, "CLASSIFICATION_TYPE": "U", "NORAD_CAT_ID": 66881, "ELEMENT_SET_NO": 999, "REV_AT_EPOCH": 453, "BSTAR": -0.027729, "MEAN_MOTION_DOT": -0.01954598, "MEAN_MOTION_DDOT": 0}, "tle": {"line1": "1 66881U 25283D   25359.83335647 -.01954598  00000+0 -27729-1 0  9992", "line2": "2 66881  53.1599   8.6139 0001291  77.0502  39.1511 15.59265100  4530"}}, "geometry": {"type": "Point", "coordinates": [167.36935464727435, 24.169274948041203]}}, {"type": "Feature", "properties": {"norad_id": 66882, "name": "STARLINK-35912", "group": "last-30-days", "lat": 22.715247967254783, "lon": 168.73605151360204, "alt_km": 391.0268124316508, "timestamp": "2025-12-26T03:50:10.808556+00:00", "meta": {"OBJECT_NAME": "STARLINK-35912", "OBJECT_ID": "2025-283E", "EPOCH": "2025-12-25T20:00:01.999008", "MEAN_MOTION": 15.59266823, "ECCENTRICITY": 0.0001398, "INCLINATION": 53.1598, "RA_OF_ASC_NODE": 8.611, "ARG_OF_PERICENTER": 77.0405, "MEAN_ANOMALY": 41.0799, "EPHEMERIS_TYPE": 0, "CLASSIFICATION_TYPE": "U", "NORAD_CAT_ID": 66882, "ELEMENT_SET_NO": 999, "REV_AT_EPOCH": 453, "BSTAR": -0.027817, "MEAN_MOTION_DOT": -0.01960207, "MEAN_MOTION_DDOT": 0}, "tle": {"line1": "1 66882U 25283E   25359.83335647 -.01960207  00000+0 -27817-1 0  9995", "line2": "2 66882  53.1598   8.6110 0001398  77.0405  41.0799 15.59266823  4532"}}, "geometry": {"type": "Point", "coordinates": [168.73605151360204, 22.715247967254783]}}, {"type": "Feature", "properties": {"norad_id": 66883, "name": "STARLINK-35947", "group": "last-30-days", "lat": 21.253852300639263, "lon": 170.0694909902286, "alt_km": 391.3222213678491, "timestamp": "2025-12-26T03:50:10.808571+00:00", "meta": {"OBJECT_NAME": "STARLINK-35947", "OBJECT_ID": "2025-283F", "EPOCH": "2025-12-25T20:00:01.999008", "MEAN_MOTION": 15.59267438, "ECCENTRICITY": 0.0001185, "INCLINATION": 53.1597, "RA_OF_ASC_NODE": 8.6074, "ARG_OF_PERICENTER": 77.341, "MEAN_ANOMALY": 42.6949, "EPHEMERIS_TYPE": 0, "CLASSIFICATION_TYPE": "U", "NORAD_CAT_ID": 66883, "ELEMENT_SET_NO": 999, "REV_AT_EPOCH": 458, "BSTAR": -0.027792, "MEAN_MOTION_DOT": -0.01958589, "MEAN_MOTION_DDOT": 0}, "tle": {"line1": "1 66883U 25283F   25359.83335647 -.01958589  00000+0 -27792-1 0  9998", "line2": "2 66883  53.1597   8.6074 0001185  77.3410  42.6949 15.59267438  4586"}}, "geometry": {"type": "Point", "coordinates": [170.0694909902286, 21.253852300639263]}}, {"type": "Feature", "properties": {"norad_id": 66884, "name": "STARLINK-36057", "group": "last-30-days", "lat": 18.29744075900418, "lon": 172.66129928404243, "alt_km": 391.82992064216796, "timestamp": "2025-12-26T03:50:10.808581+00:00", "meta": {"OBJECT_NAME": "STARLINK-36057", "OBJECT_ID": "2025-283G", "EPOCH": "2025-12-25T20:00:01.999008", "MEAN_MOTION": 15.59267917, "ECCENTRICITY": 0.0001254, "INCLINATION": 53.1599, "RA_OF_ASC_NODE": 8.5986, "ARG_OF_PERICENTER": 77.8324, "MEAN_ANOMALY": 46.0365, "EPHEMERIS_TYPE": 0, "CLASSIFICATION_TYPE": "U", "NORAD_CAT_ID": 66884, "ELEMENT_SET_NO": 999, "REV_AT_EPOCH": 453, "BSTAR": -0.027799, "MEAN_MOTION_DOT": -0.01959077, "MEAN_MOTION_DDOT": 0}, "tle": {"line1": "1 66884U 25283G   25359.83335647 -.01959077  00000+0 -27799-1 0  9999", "line2": "2 66884  53.1599   8.5986 0001254  77.8324  46.0365 15.59267917  4533"}}, "geometry": {"type": "Point", "coordinates": [172.66129928404243, 18.29744075900418]}}, {"type": "Feature", "properties": {"norad_id": 66885, "name": "STARLINK-35954", "group": "last-30-days", "lat": 19.77865916287486, "lon": 171.37864375574964, "alt_km": 391.5735816815459, "timestamp": "2025-12-26T03:50:10.808591+00:00", "meta": {"OBJECT_NAME": "STARLINK-35954", "OBJECT_ID": "2025-283H", "EPOCH": "2025-12-25T20:00:01.999008", "MEAN_MOTION": 15.59272832, "ECCENTRICITY": 0.000128, "INCLINATION": 53.1598, "RA_OF_ASC_NODE": 8.6027, "ARG_OF_PERICENTER": 77.2495, "MEAN_ANOMALY": 44.7022, "EPHEMERIS_TYPE": 0, "CLASSIFICATION_TYPE": "U", "NORAD_CAT_ID": 66885, "ELEMENT_SET_NO": 999, "REV_AT_EPOCH": 453, "BSTAR": -0.027923, "MEAN_MOTION_DOT": -0.01967108, "MEAN_MOTION_DDOT": 0}, "tle": {"line1": "1 66885U 25283H   25359.83335647 -.01967108  00000+0 -27923-1 0  9993", "line2": "2 66885  53.1598   8.6027 0001280  77.2495  44.7022 15.59272832  4539"}}, "geometry": {"type": "Point", "coordinates": [171.37864375574964, 19.77865916287486]}}, {"type": "Feature", "properties": {"norad_id": 66886, "name": "STARLINK-35900", "group": "last-30-days", "lat": 16.805403459292496, "lon": 173.92353747795121, "alt_km": 392.056637326451, "timestamp": "2025-12-26T03:50:10.808601+00:00", "meta": {"OBJECT_NAME": "STARLINK-35900", "OBJECT_ID": "2025-283J", "EPOCH": "2025-12-25T20:00:01.999008", "MEAN_MOTION": 15.59265847, "ECCENTRICITY": 0.000139, "INCLINATION": 53.1598, "RA_OF_ASC_NODE": 8.5941, "ARG_OF_PERICENTER": 79.1256, "MEAN_ANOMALY": 46.6605, "EPHEMERIS_TYPE": 0, "CLASSIFICATION_TYPE": "U", "NORAD_CAT_ID": 66886, "ELEMENT_SET_NO": 999, "REV_AT_EPOCH": 453, "BSTAR": -0.027745, "MEAN_MOTION_DOT": -0.0195568, "MEAN_MOTION_DDOT": 0}, "tle": {"line1": "1 66886U 25283J   25359.83335647 -.01955680  00000+0 -27745-1 0  9998", "line2": "2 66886  53.1598   8.5941 0001390  79.1256  46.6605 15.59265847  4538"}}, "geometry": {"type": "Point", "coordinates": [173.92353747795121, 16.805403459292496]}}, {"type": "Feature", "properties": {"norad_id": 66887, "name": "STARLINK-35925", "group": "last-30-days", "lat": 15.307297971203743, "lon": 175.16557348085863, "alt_km": 392.3233849096805, "timestamp": "2025-12-26T03:50:10.808611+00:00", "meta": {"OBJECT_NAME": "STARLINK-35925", "OBJECT_ID": "2025-283K", "EPOCH": "2025-12-25T20:00:01.999008", "MEAN_MOTION": 15.59266669, "ECCENTRICITY": 0.0001227, "INCLINATION": 53.1597, "RA_OF_ASC_NODE": 8.5905, "ARG_OF_PERICENTER": 80.681, "MEAN_ANOMALY": 47.0231, "EPHEMERIS_TYPE": 0, "CLASSIFICATION_TYPE": "U", "NORAD_CAT_ID": 66887, "ELEMENT_SET_NO": 999, "REV_AT_EPOCH": 453, "BSTAR": -0.027776, "MEAN_MOTION_DOT": -0.01957515, "MEAN_MOTION_DDOT": 0}, "tle": {"line1": "1 66887U 25283K   25359.83335647 -.01957515  00000+0 -27776-1 0  9992", "line2": "2 66887  53.1597   8.5905 0001227  80.6810  47.0231 15.59266669  4533"}}, "geometry": {"type": "Point", "coordinates": [175.16557348085863, 15.307297971203743]}}, {"type": "Feature", "properties": {"norad_id": 66888, "name": "STARLINK-35919", "group": "last-30-days", "lat": 13.802404636023722, "lon": 176.38916634608862, "alt_km": 392.59031998323735, "timestamp": "2025-12-26T03:50:10.808621+00:00", "meta": {"OBJECT_NAME": "STARLINK-35919", "OBJECT_ID": "2025-283L", "EPOCH": "2025-12-25T20:00:01.999008", "MEAN_MOTION": 15.59266154, "ECCENTRICITY": 0.0001272, "INCLINATION": 53.1596, "RA_OF_ASC_NODE": 8.5862, "ARG_OF_PERICENTER": 79.837, "MEAN_ANOMALY": 49.7832, "EPHEMERIS_TYPE": 0, "CLASSIFICATION_TYPE": "U", "NORAD_CAT_ID": 66888, "ELEMENT_SET_NO": 999, "REV_AT_EPOCH": 453, "BSTAR": -0.027773, "MEAN_MOTION_DOT": -0.01957327, "MEAN_MOTION_DDOT": 0}, "tle": {"line1": "1 66888U 25283L   25359.83335647 -.01957327  00000+0 -27773-1 0  9991", "line2": "2 66888  53.1596   8.5862 0001272  79.8370  49.7832 15.59266154  4531"}}, "geometry": {"type": "Point", "coordinates": [176.38916634608862, 13.802404636023722]}}]}